[{"OBJECT_NAME":"STARLINK-36663","OBJECT_ID":"2026-036R","EPOCH":"2026-03-18T14:00:01.000224","MEAN_MOTION":15.55841392,"ECCENTRICITY":0.00013871,"INCLINATION":43.0006,"RA_OF_ASC_NODE":195.8907,"ARG_OF_PERICENTER":279.3934,"MEAN_ANOMALY":33.2025,"EPHEMERIS_TYPE":0,"CLASSIFICATION_TYPE":"U","NORAD_CAT_ID":67919,"ELEMENT_SET_NO":999,"REV_AT_EPOCH":507,"BSTAR":-0.030085141,"MEAN_MOTION_DOT":-0.0188739,"MEAN_MOTION_DDOT":0},{"OBJECT_NAME":"STARLINK-36375","OBJECT_ID":"2026-036S","EPOCH":"2026-03-18T14:00:01.000224","MEAN_MOTION":15.50530091,"ECCENTRICITY":0.0001728,"INCLINATION":43,"RA_OF_ASC_NODE":196.2296,"ARG_OF_PERICENTER":273.4148,"MEAN_ANOMALY":261.4478,"EPHEMERIS_TYPE":0,"CLASSIFICATION_TYPE":"U","NORAD_CAT_ID":67920,"ELEMENT_SET_NO":999,"REV_AT_EPOCH":507,"BSTAR":0.00066263531,"MEAN_MOTION_DOT":0.00038657,"MEAN_MOTION_DDOT":0},{"OBJECT_NAME":"STARLINK-36405","OBJECT_ID":"2026-036T","EPOCH":"2026-03-18T14:00:01.000224","MEAN_MOTION":15.50539023,"ECCENTRICITY":0.0001948,"INCLINATION":43.0007,"RA_OF_ASC_NODE":196.8023,"ARG_OF_PERICENTER":270.1935,"MEAN_ANOMALY":32.8975,"EPHEMERIS_TYPE":0,"CLASSIFICATION_TYPE":"U","NORAD_CAT_ID":67921,"ELEMENT_SET_NO":999,"REV_AT_EPOCH":507,"BSTAR":0.00058620181,"MEAN_MOTION_DOT":0.0003415,"MEAN_MOTION_DDOT":0},{"OBJECT_NAME":"STARLINK-36383","OBJECT_ID":"2026-036U","EPOCH":"2026-03-18T14:24:12.974688","MEAN_MOTION":15.82145854,"ECCENTRICITY":0.00040688,"INCLINATION":42.9991,"RA_OF_ASC_NODE":195.0069,"ARG_OF_PERICENTER":254.701,"MEAN_ANOMALY":105.3413,"EPHEMERIS_TYPE":0,"CLASSIFICATION_TYPE":"U","NORAD_CAT_ID":67922,"ELEMENT_SET_NO":999,"REV_AT_EPOCH":508,"BSTAR":0.0014644073,"MEAN_MOTION_DOT":0.00321566,"MEAN_MOTION_DDOT":0},{"OBJECT_NAME":"STARLINK-36406","OBJECT_ID":"2026-036V","EPOCH":"2026-03-18T14:00:01.000224","MEAN_MOTION":15.50533822,"ECCENTRICITY":0.00017694,"INCLINATION":43.0002,"RA_OF_ASC_NODE":197.0793,"ARG_OF_PERICENTER":275.8808,"MEAN_ANOMALY":275.056,"EPHEMERIS_TYPE":0,"CLASSIFICATION_TYPE":"U","NORAD_CAT_ID":67923,"ELEMENT_SET_NO":999,"REV_AT_EPOCH":507,"BSTAR":0.00086212506,"MEAN_MOTION_DOT":0.00050481,"MEAN_MOTION_DDOT":0},{"OBJECT_NAME":"STARLINK-36714","OBJECT_ID":"2026-036W","EPOCH":"2026-03-18T14:00:01.000224","MEAN_MOTION":15.50518285,"ECCENTRICITY":0.00017239,"INCLINATION":43.0001,"RA_OF_ASC_NODE":196.1459,"ARG_OF_PERICENTER":294.667,"MEAN_ANOMALY":273.634,"EPHEMERIS_TYPE":0,"CLASSIFICATION_TYPE":"U","NORAD_CAT_ID":67924,"ELEMENT_SET_NO":999,"REV_AT_EPOCH":507,"BSTAR":0.0007550283,"MEAN_MOTION_DOT":0.00044107,"MEAN_MOTION_DDOT":0},{"OBJECT_NAME":"STARLINK-36726","OBJECT_ID":"2026-036X","EPOCH":"2026-03-18T14:00:01.000224","MEAN_MOTION":15.50540406,"ECCENTRICITY":0.00014821,"INCLINATION":43.0008,"RA_OF_ASC_NODE":196.775,"ARG_OF_PERICENTER":279.9206,"MEAN_ANOMALY":33.982,"EPHEMERIS_TYPE":0,"CLASSIFICATION_TYPE":"U","NORAD_CAT_ID":67925,"ELEMENT_SET_NO":999,"REV_AT_EPOCH":507,"BSTAR":0.0011141488,"MEAN_MOTION_DOT":0.00065478,"MEAN_MOTION_DDOT":0},{"OBJECT_NAME":"STARLINK-36758","OBJECT_ID":"2026-036Y","EPOCH":"2026-03-18T14:00:01.000224","MEAN_MOTION":15.505409,"ECCENTRICITY":0.00015881,"INCLINATION":42.9999,"RA_OF_ASC_NODE":196.295,"ARG_OF_PERICENTER":281.2042,"MEAN_ANOMALY":226.4361,"EPHEMERIS_TYPE":0,"CLASSIFICATION_TYPE":"U","NORAD_CAT_ID":67926,"ELEMENT_SET_NO":999,"REV_AT_EPOCH":507,"BSTAR":0.00063877725,"MEAN_MOTION_DOT":0.0003726,"MEAN_MOTION_DDOT":0},{"OBJECT_NAME":"STARLINK-36728","OBJECT_ID":"2026-036Z","EPOCH":"2026-03-18T14:00:01.000224","MEAN_MOTION":15.51010181,"ECCENTRICITY":0.00016257,"INCLINATION":43.0001,"RA_OF_ASC_NODE":196.0456,"ARG_OF_PERICENTER":319.1282,"MEAN_ANOMALY":289.7428,"EPHEMERIS_TYPE":0,"CLASSIFICATION_TYPE":"U","NORAD_CAT_ID":67927,"ELEMENT_SET_NO":999,"REV_AT_EPOCH":507,"BSTAR":-0.01429363,"MEAN_MOTION_DOT":-0.00783196,"MEAN_MOTION_DDOT":0},{"OBJECT_NAME":"STARLINK-36771","OBJECT_ID":"2026-036AA","EPOCH":"2026-03-18T14:00:01.000224","MEAN_MOTION":15.50536819,"ECCENTRICITY":0.00014353,"INCLINATION":43.0004,"RA_OF_ASC_NODE":196.1732,"ARG_OF_PERICENTER":272.0392,"MEAN_ANOMALY":285.1037,"EPHEMERIS_TYPE":0,"CLASSIFICATION_TYPE":"U","NORAD_CAT_ID":67928,"ELEMENT_SET_NO":999,"REV_AT_EPOCH":507,"BSTAR":0.00084151683,"MEAN_MOTION_DOT":0.00049263,"MEAN_MOTION_DDOT":0},{"OBJECT_NAME":"STARLINK-36809","OBJECT_ID":"2026-036AB","EPOCH":"2026-03-18T14:00:01.000224","MEAN_MOTION":15.50519302,"ECCENTRICITY":0.00014035,"INCLINATION":43.0001,"RA_OF_ASC_NODE":196.1498,"ARG_OF_PERICENTER":263.2386,"MEAN_ANOMALY":303.0877,"EPHEMERIS_TYPE":0,"CLASSIFICATION_TYPE":"U","NORAD_CAT_ID":67929,"ELEMENT_SET_NO":999,"REV_AT_EPOCH":507,"BSTAR":0.00076261312,"MEAN_MOTION_DOT":0.00044557,"MEAN_MOTION_DDOT":0},{"OBJECT_NAME":"STARLINK-36865","OBJECT_ID":"2026-036AC","EPOCH":"2026-03-18T14:00:01.000224","MEAN_MOTION":15.54347008,"ECCENTRICITY":0.00014611,"INCLINATION":43.0002,"RA_OF_ASC_NODE":195.8358,"ARG_OF_PERICENTER":279.152,"MEAN_ANOMALY":54.2852,"EPHEMERIS_TYPE":0,"CLASSIFICATION_TYPE":"U","NORAD_CAT_ID":67930,"ELEMENT_SET_NO":999,"REV_AT_EPOCH":507,"BSTAR":-0.031897051,"MEAN_MOTION_DOT":-0.01892171,"MEAN_MOTION_DDOT":0},{"OBJECT_NAME":"STARLINK-36781","OBJECT_ID":"2026-036AD","EPOCH":"2026-03-18T14:00:01.000224","MEAN_MOTION":15.53761825,"ECCENTRICITY":0.00013687,"INCLINATION":43.0005,"RA_OF_ASC_NODE":195.8827,"ARG_OF_PERICENTER":275.9469,"MEAN_ANOMALY":38.8995,"EPHEMERIS_TYPE":0,"CLASSIFICATION_TYPE":"U","NORAD_CAT_ID":67931,"ELEMENT_SET_NO":999,"REV_AT_EPOCH":507,"BSTAR":-0.032424061,"MEAN_MOTION_DOT":-0.01883413,"MEAN_MOTION_DDOT":0},{"OBJECT_NAME":"STARLINK-36301","OBJECT_ID":"2026-037A","EPOCH":"2026-03-17T21:54:03.057696","MEAN_MOTION":15.82107586,"ECCENTRICITY":0.00011657,"INCLINATION":42.9982,"RA_OF_ASC_NODE":148.1836,"ARG_OF_PERICENTER":1.0372,"MEAN_ANOMALY":359.0502,"EPHEMERIS_TYPE":0,"CLASSIFICATION_TYPE":"U","NORAD_CAT_ID":67932,"ELEMENT_SET_NO":999,"REV_AT_EPOCH":455,"BSTAR":0.0014845044,"MEAN_MOTION_DOT":0.00325484,"MEAN_MOTION_DDOT":0},{"OBJECT_NAME":"STARLINK-36852","OBJECT_ID":"2026-037B","EPOCH":"2026-03-18T14:00:01.000224","MEAN_MOTION":15.62083935,"ECCENTRICITY":0.00016422,"INCLINATION":42.9997,"RA_OF_ASC_NODE":144.4908,"ARG_OF_PERICENTER":281.0947,"MEAN_ANOMALY":138.2213,"EPHEMERIS_TYPE":0,"CLASSIFICATION_TYPE":"U","NORAD_CAT_ID":67933,"ELEMENT_SET_NO":999,"REV_AT_EPOCH":462,"BSTAR":-0.022998135,"MEAN_MOTION_DOT":-0.01839703,"MEAN_MOTION_DDOT":0},{"OBJECT_NAME":"STARLINK-36861","OBJECT_ID":"2026-037C","EPOCH":"2026-03-18T11:32:50.042400","MEAN_MOTION":15.80047963,"ECCENTRICITY":0.00053002,"INCLINATION":42.9986,"RA_OF_ASC_NODE":144.705,"ARG_OF_PERICENTER":127.0312,"MEAN_ANOMALY":233.1044,"EPHEMERIS_TYPE":0,"CLASSIFICATION_TYPE":"U","NORAD_CAT_ID":67934,"ELEMENT_SET_NO":999,"REV_AT_EPOCH":464,"BSTAR":0.0013363334,"MEAN_MOTION_DOT":0.00264558,"MEAN_MOTION_DDOT":0},{"OBJECT_NAME":"STARLINK-36860","OBJECT_ID":"2026-037D","EPOCH":"2026-03-18T14:00:01.000224","MEAN_MOTION":15.67670553,"ECCENTRICITY":0.00012687,"INCLINATION":42.9993,"RA_OF_ASC_NODE":144.2654,"ARG_OF_PERICENTER":290.0365,"MEAN_ANOMALY":219.6688,"EPHEMERIS_TYPE":0,"CLASSIFICATION_TYPE":"U","NORAD_CAT_ID":67935,"ELEMENT_SET_NO":999,"REV_AT_EPOCH":462,"BSTAR":-0.019058613,"MEAN_MOTION_DOT":-0.01901268,"MEAN_MOTION_DDOT":0},{"OBJECT_NAME":"STARLINK-36848","OBJECT_ID":"2026-037E","EPOCH":"2026-03-18T14:00:01.000224","MEAN_MOTION":15.65179812,"ECCENTRICITY":0.00012216,"INCLINATION":42.9996,"RA_OF_ASC_NODE":144.3253,"ARG_OF_PERICENTER":292.5059,"MEAN_ANOMALY":192.5102,"EPHEMERIS_TYPE":0,"CLASSIFICATION_TYPE":"U","NORAD_CAT_ID":67936,"ELEMENT_SET_NO":999,"REV_AT_EPOCH":462,"BSTAR":-0.020769374,"MEAN_MOTION_DOT":-0.01874871,"MEAN_MOTION_DDOT":0},{"OBJECT_NAME":"STARLINK-36370","OBJECT_ID":"2026-037F","EPOCH":"2026-03-18T14:00:01.000224","MEAN_MOTION":15.68564943,"ECCENTRICITY":0.00011509,"INCLINATION":42.9993,"RA_OF_ASC_NODE":144.2288,"ARG_OF_PERICENTER":287.3162,"MEAN_ANOMALY":237.2445,"EPHEMERIS_TYPE":0,"CLASSIFICATION_TYPE":"U","NORAD_CAT_ID":67937,"ELEMENT_SET_NO":999,"REV_AT_EPOCH":462,"BSTAR":-0.018531907,"MEAN_MOTION_DOT":-0.01916476,"MEAN_MOTION_DDOT":0},{"OBJECT_NAME":"STARLINK-36371","OBJECT_ID":"2026-037G","EPOCH":"2026-03-18T14:00:01.000224","MEAN_MOTION":15.72450525,"ECCENTRICITY":0.00012165,"INCLINATION":42.9995,"RA_OF_ASC_NODE":144.1102,"ARG_OF_PERICENTER":281.4534,"MEAN_ANOMALY":290.1797,"EPHEMERIS_TYPE":0,"CLASSIFICATION_TYPE":"U","NORAD_CAT_ID":67938,"ELEMENT_SET_NO":999,"REV_AT_EPOCH":462,"BSTAR":-0.015662934,"MEAN_MOTION_DOT":-0.0187258,"MEAN_MOTION_DDOT":0},{"OBJECT_NAME":"STARLINK-36246","OBJECT_ID":"2026-037H","EPOCH":"2026-03-18T14:00:01.000224","MEAN_MOTION":15.65984346,"ECCENTRICITY":0.00012228,"INCLINATION":42.9994,"RA_OF_ASC_NODE":144.2761,"ARG_OF_PERICENTER":294.0103,"MEAN_ANOMALY":210.9352,"EPHEMERIS_TYPE":0,"CLASSIFICATION_TYPE":"U","NORAD_CAT_ID":67939,"ELEMENT_SET_NO":999,"REV_AT_EPOCH":454,"BSTAR":-0.020095294,"MEAN_MOTION_DOT":-0.01874238,"MEAN_MOTION_DDOT":0},{"OBJECT_NAME":"STARLINK-36907","OBJECT_ID":"2026-037J","EPOCH":"2026-03-17T21:43:19.605792","MEAN_MOTION":15.81976946,"ECCENTRICITY":0.0002089,"INCLINATION":42.9984,"RA_OF_ASC_NODE":148.1227,"ARG_OF_PERICENTER":303.2284,"MEAN_ANOMALY":56.8387,"EPHEMERIS_TYPE":0,"CLASSIFICATION_TYPE":"U","NORAD_CAT_ID":67940,"ELEMENT_SET_NO":999,"REV_AT_EPOCH":455,"BSTAR":0.0021716678,"MEAN_MOTION_DOT":0.00482279,"MEAN_MOTION_DDOT":0},{"OBJECT_NAME":"STARLINK-36927","OBJECT_ID":"2026-037K","EPOCH":"2026-03-18T14:00:01.000224","MEAN_MOTION":15.74571005,"ECCENTRICITY":0.00013089,"INCLINATION":42.9994,"RA_OF_ASC_NODE":144.0064,"ARG_OF_PERICENTER":277.3036,"MEAN_ANOMALY":335.483,"EPHEMERIS_TYPE":0,"CLASSIFICATION_TYPE":"U","NORAD_CAT_ID":67941,"ELEMENT_SET_NO":999,"REV_AT_EPOCH":462,"BSTAR":-0.014272345,"MEAN_MOTION_DOT":-0.01871852,"MEAN_MOTION_DDOT":0}]
